ONEWEB-0275             
1 48993U 21060AC  24133.40806573 -.00000013  00000+0 -67215-4 0  9998
2 48993  87.9140  21.2093 0001932  86.4901 273.6450 13.16594047140084
ONEWEB-0276             
1 48994U 21060AD  24132.75733805  .00000107  00000+0  24512-3 0  9997
2 48994  87.9140  21.3345 0002017  90.1578 269.9784 13.16592793138725
ONEWEB-0277             
1 48995U 21060AE  24132.92199484  .00000133  00000+0  31466-3 0  9991
2 48995  87.9140  21.3401 0001944  98.2734 261.8617 13.16593359140021
ONEWEB-0278             
1 48996U 21060AF  24132.76050702  .00000119  00000+0  27763-3 0  9992
2 48996  87.9141  21.3308 0002089  75.7710 284.3653 13.16595163138846
ONEWEB-0279             
1 48997U 21060AG  24133.45239144  .00000055  00000+0  11010-3 0  9996
2 48997  87.9139  21.1913 0001882  95.8684 264.2661 13.16593258140164
ONEWEB-0280             
1 48998U 21060AH  24132.93465866  .00000064  00000+0  13287-3 0  9999
2 48998  87.9144  21.2951 0002078  83.7450 276.3917 13.16593102138735
ONEWEB-0281             
1 48999U 21060AJ  24132.71301040 -.00000010  00000+0 -60886-4 0  9990
2 48999  87.9143  21.3411 0001616  78.8763 281.2549 13.16594087138779
ONEWEB-0282             
1 49000U 21060AK  24133.42705055 -.00000256  00000+0 -70298-3 0  9996
2 49000  87.9137  21.2161 0002088  90.5555 269.5815 13.16593544140169
